ISS (ZARYA)             
1 25544U 98067A   25317.19293592  .00019765  00000+0  35825-3 0  9991
2 25544  51.6333 288.7385 0004163  64.5254 295.6165 15.49608679538278
CSS (TIANHE)            
1 48274U 21035A   25317.11881128  .00044921  00000+0  51888-3 0  9996
2 48274  41.4653 196.4910 0004055  16.3681 343.7288 15.61083744259403
ISS (NAUKA)             
1 49044U 21066A   25317.19293592  .00019765  00000+0  35825-3 0  9997
2 49044  51.6333 288.7385 0004163  64.5254 295.6165 15.49608679230447
FREGAT DEB              
1 49271U 11037PF  25316.61085732  .00016080  00000+0  34445-1 0  9999
2 49271  51.6229 288.5362 0880592 158.9260 205.0363 12.33975220198211
CSS (WENTIAN)           
1 53239U 22085A   25317.11881128  .00044921  00000+0  51888-3 0  9999
2 53239  41.4653 196.4910 0004055  16.3681 343.7288 15.61083744173843
CSS (MENGTIAN)          
1 54216U 22143A   25317.11881128  .00044921  00000+0  51888-3 0  9990
2 54216  41.4653 196.4910 0004055  16.3681 343.7288 15.61083744158640
SOYUZ-MS 27             
1 63520U 25072A   25317.19293592  .00019765  00000+0  35825-3 0  9993
2 63520  51.6333 288.7385 0004163  64.5254 295.6165 15.49608679 20203
SHENZHOU-20 (SZ-20)     
1 63632U 25082A   25317.11881128  .00044921  00000+0  51888-3 0  9997
2 63632  41.4653 196.4910 0004055  16.3681 343.7288 15.61083744255303
PROGRESS-MS 31          
1 64751U 25146A   25317.19293592  .00019765  00000+0  35825-3 0  9992
2 64751  51.6333 288.7385 0004163  64.5254 295.6165 15.49608679  6754
TIANZHOU-9              
1 64786U 25149A   25317.11881128  .00044921  00000+0  51888-3 0  9992
2 64786  41.4653 196.4910 0004055  16.3681 343.7288 15.61083744255304
CREW DRAGON 11          
1 65077U 25166A   25317.19293592  .00019765  00000+0  35825-3 0  9996
2 65077  51.6333 288.7385 0004163  64.5254 295.6165 15.49608679  2145
DRAGON CRS-33           
1 65304U 25186A   25317.19293592  .00019765  00000+0  35825-3 0  9991
2 65304  51.6333 288.7385 0004163  64.5254 295.6165 15.49608679   113
