CCSDS_OMM_VERS = 2.0
CREATION_DATE  = 
ORIGINATOR     = 

OBJECT_NAME    = ISS (ZARYA)
OBJECT_ID      = 1998-067A
CENTER_NAME    = EARTH
REF_FRAME      = TEME
TIME_SYSTEM    = UTC
MEAN_ELEMENT_THEORY = SGP/SGP4

EPOCH          = 2025-11-13T04:37:49.663488
MEAN_MOTION    = 15.49608679
ECCENTRICITY   = .00041633
INCLINATION    = 51.6333
RA_OF_ASC_NODE = 288.7385
ARG_OF_PERICENTER = 64.5254
MEAN_ANOMALY   = 295.6165

EPHEMERIS_TYPE = 0
CLASSIFICATION_TYPE = U
NORAD_CAT_ID   = 25544
ELEMENT_SET_NO = 999
REV_AT_EPOCH   = 53827
BSTAR          = .35825426E-3
MEAN_MOTION_DOT = .19765E-3
MEAN_MOTION_DDOT = 0

CCSDS_OMM_VERS = 2.0
CREATION_DATE  = 
ORIGINATOR     = 

OBJECT_NAME    = CSS (TIANHE)
OBJECT_ID      = 2021-035A
CENTER_NAME    = EARTH
REF_FRAME      = TEME
TIME_SYSTEM    = UTC
MEAN_ELEMENT_THEORY = SGP/SGP4

EPOCH          = 2025-11-13T02:51:05.294592
MEAN_MOTION    = 15.61083744
ECCENTRICITY   = .00040558
INCLINATION    = 41.4653
RA_OF_ASC_NODE = 196.4910
ARG_OF_PERICENTER = 16.3681
MEAN_ANOMALY   = 343.7288

EPHEMERIS_TYPE = 0
CLASSIFICATION_TYPE = U
NORAD_CAT_ID   = 48274
ELEMENT_SET_NO = 999
REV_AT_EPOCH   = 25940
BSTAR          = .51888494E-3
MEAN_MOTION_DOT = .44921E-3
MEAN_MOTION_DDOT = 0

CCSDS_OMM_VERS = 2.0
CREATION_DATE  = 
ORIGINATOR     = 

OBJECT_NAME    = ISS (NAUKA)
OBJECT_ID      = 2021-066A
CENTER_NAME    = EARTH
REF_FRAME      = TEME
TIME_SYSTEM    = UTC
MEAN_ELEMENT_THEORY = SGP/SGP4

EPOCH          = 2025-11-13T04:37:49.663488
MEAN_MOTION    = 15.49608679
ECCENTRICITY   = .00041633
INCLINATION    = 51.6333
RA_OF_ASC_NODE = 288.7385
ARG_OF_PERICENTER = 64.5254
MEAN_ANOMALY   = 295.6165

EPHEMERIS_TYPE = 0
CLASSIFICATION_TYPE = U
NORAD_CAT_ID   = 49044
ELEMENT_SET_NO = 999
REV_AT_EPOCH   = 23044
BSTAR          = .35825426E-3
MEAN_MOTION_DOT = .19765E-3
MEAN_MOTION_DDOT = 0

CCSDS_OMM_VERS = 2.0
CREATION_DATE  = 
ORIGINATOR     = 

OBJECT_NAME    = FREGAT DEB
OBJECT_ID      = 2011-037PF
CENTER_NAME    = EARTH
REF_FRAME      = TEME
TIME_SYSTEM    = UTC
MEAN_ELEMENT_THEORY = SGP/SGP4

EPOCH          = 2025-11-12T14:39:38.072448
MEAN_MOTION    = 12.33975220
ECCENTRICITY   = .08805921
INCLINATION    = 51.6229
RA_OF_ASC_NODE = 288.5362
ARG_OF_PERICENTER = 158.9260
MEAN_ANOMALY   = 205.0363

EPHEMERIS_TYPE = 0
CLASSIFICATION_TYPE = U
NORAD_CAT_ID   = 49271
ELEMENT_SET_NO = 999
REV_AT_EPOCH   = 19821
BSTAR          = .34444579E-1
MEAN_MOTION_DOT = .1608E-3
MEAN_MOTION_DDOT = 0

CCSDS_OMM_VERS = 2.0
CREATION_DATE  = 
ORIGINATOR     = 

OBJECT_NAME    = CSS (WENTIAN)
OBJECT_ID      = 2022-085A
CENTER_NAME    = EARTH
REF_FRAME      = TEME
TIME_SYSTEM    = UTC
MEAN_ELEMENT_THEORY = SGP/SGP4

EPOCH          = 2025-11-13T02:51:05.294592
MEAN_MOTION    = 15.61083744
ECCENTRICITY   = .00040558
INCLINATION    = 41.4653
RA_OF_ASC_NODE = 196.4910
ARG_OF_PERICENTER = 16.3681
MEAN_ANOMALY   = 343.7288

EPHEMERIS_TYPE = 0
CLASSIFICATION_TYPE = U
NORAD_CAT_ID   = 53239
ELEMENT_SET_NO = 999
REV_AT_EPOCH   = 17384
BSTAR          = .51888494E-3
MEAN_MOTION_DOT = .44921E-3
MEAN_MOTION_DDOT = 0

CCSDS_OMM_VERS = 2.0
CREATION_DATE  = 
ORIGINATOR     = 

OBJECT_NAME    = CSS (MENGTIAN)
OBJECT_ID      = 2022-143A
CENTER_NAME    = EARTH
REF_FRAME      = TEME
TIME_SYSTEM    = UTC
MEAN_ELEMENT_THEORY = SGP/SGP4

EPOCH          = 2025-11-13T02:51:05.294592
MEAN_MOTION    = 15.61083744
ECCENTRICITY   = .00040558
INCLINATION    = 41.4653
RA_OF_ASC_NODE = 196.4910
ARG_OF_PERICENTER = 16.3681
MEAN_ANOMALY   = 343.7288

EPHEMERIS_TYPE = 0
CLASSIFICATION_TYPE = U
NORAD_CAT_ID   = 54216
ELEMENT_SET_NO = 999
REV_AT_EPOCH   = 15864
BSTAR          = .51888494E-3
MEAN_MOTION_DOT = .44921E-3
MEAN_MOTION_DDOT = 0

CCSDS_OMM_VERS = 2.0
CREATION_DATE  = 
ORIGINATOR     = 

OBJECT_NAME    = SOYUZ-MS 27
OBJECT_ID      = 2025-072A
CENTER_NAME    = EARTH
REF_FRAME      = TEME
TIME_SYSTEM    = UTC
MEAN_ELEMENT_THEORY = SGP/SGP4

EPOCH          = 2025-11-13T04:37:49.663488
MEAN_MOTION    = 15.49608679
ECCENTRICITY   = .00041633
INCLINATION    = 51.6333
RA_OF_ASC_NODE = 288.7385
ARG_OF_PERICENTER = 64.5254
MEAN_ANOMALY   = 295.6165

EPHEMERIS_TYPE = 0
CLASSIFICATION_TYPE = U
NORAD_CAT_ID   = 63520
ELEMENT_SET_NO = 999
REV_AT_EPOCH   = 2020
BSTAR          = .35825426E-3
MEAN_MOTION_DOT = .19765E-3
MEAN_MOTION_DDOT = 0

CCSDS_OMM_VERS = 2.0
CREATION_DATE  = 
ORIGINATOR     = 

OBJECT_NAME    = SHENZHOU-20 (SZ-20)
OBJECT_ID      = 2025-082A
CENTER_NAME    = EARTH
REF_FRAME      = TEME
TIME_SYSTEM    = UTC
MEAN_ELEMENT_THEORY = SGP/SGP4

EPOCH          = 2025-11-13T02:51:05.294592
MEAN_MOTION    = 15.61083744
ECCENTRICITY   = .00040558
INCLINATION    = 41.4653
RA_OF_ASC_NODE = 196.4910
ARG_OF_PERICENTER = 16.3681
MEAN_ANOMALY   = 343.7288

EPHEMERIS_TYPE = 0
CLASSIFICATION_TYPE = U
NORAD_CAT_ID   = 63632
ELEMENT_SET_NO = 999
REV_AT_EPOCH   = 25530
BSTAR          = .51888494E-3
MEAN_MOTION_DOT = .44921E-3
MEAN_MOTION_DDOT = 0

CCSDS_OMM_VERS = 2.0
CREATION_DATE  = 
ORIGINATOR     = 

OBJECT_NAME    = PROGRESS-MS 31
OBJECT_ID      = 2025-146A
CENTER_NAME    = EARTH
REF_FRAME      = TEME
TIME_SYSTEM    = UTC
MEAN_ELEMENT_THEORY = SGP/SGP4

EPOCH          = 2025-11-13T04:37:49.663488
MEAN_MOTION    = 15.49608679
ECCENTRICITY   = .00041633
INCLINATION    = 51.6333
RA_OF_ASC_NODE = 288.7385
ARG_OF_PERICENTER = 64.5254
MEAN_ANOMALY   = 295.6165

EPHEMERIS_TYPE = 0
CLASSIFICATION_TYPE = U
NORAD_CAT_ID   = 64751
ELEMENT_SET_NO = 999
REV_AT_EPOCH   = 675
BSTAR          = .35825426E-3
MEAN_MOTION_DOT = .19765E-3
MEAN_MOTION_DDOT = 0

CCSDS_OMM_VERS = 2.0
CREATION_DATE  = 
ORIGINATOR     = 

OBJECT_NAME    = TIANZHOU-9
OBJECT_ID      = 2025-149A
CENTER_NAME    = EARTH
REF_FRAME      = TEME
TIME_SYSTEM    = UTC
MEAN_ELEMENT_THEORY = SGP/SGP4

EPOCH          = 2025-11-13T02:51:05.294592
MEAN_MOTION    = 15.61083744
ECCENTRICITY   = .00040558
INCLINATION    = 41.4653
RA_OF_ASC_NODE = 196.4910
ARG_OF_PERICENTER = 16.3681
MEAN_ANOMALY   = 343.7288

EPHEMERIS_TYPE = 0
CLASSIFICATION_TYPE = U
NORAD_CAT_ID   = 64786
ELEMENT_SET_NO = 999
REV_AT_EPOCH   = 25530
BSTAR          = .51888494E-3
MEAN_MOTION_DOT = .44921E-3
MEAN_MOTION_DDOT = 0

CCSDS_OMM_VERS = 2.0
CREATION_DATE  = 
ORIGINATOR     = 

OBJECT_NAME    = CREW DRAGON 11
OBJECT_ID      = 2025-166A
CENTER_NAME    = EARTH
REF_FRAME      = TEME
TIME_SYSTEM    = UTC
MEAN_ELEMENT_THEORY = SGP/SGP4

EPOCH          = 2025-11-13T04:37:49.663488
MEAN_MOTION    = 15.49608679
ECCENTRICITY   = .00041633
INCLINATION    = 51.6333
RA_OF_ASC_NODE = 288.7385
ARG_OF_PERICENTER = 64.5254
MEAN_ANOMALY   = 295.6165

EPHEMERIS_TYPE = 0
CLASSIFICATION_TYPE = U
NORAD_CAT_ID   = 65077
ELEMENT_SET_NO = 999
REV_AT_EPOCH   = 214
BSTAR          = .35825426E-3
MEAN_MOTION_DOT = .19765E-3
MEAN_MOTION_DDOT = 0

CCSDS_OMM_VERS = 2.0
CREATION_DATE  = 
ORIGINATOR     = 

OBJECT_NAME    = DRAGON CRS-33
OBJECT_ID      = 2025-186A
CENTER_NAME    = EARTH
REF_FRAME      = TEME
TIME_SYSTEM    = UTC
MEAN_ELEMENT_THEORY = SGP/SGP4

EPOCH          = 2025-11-13T04:37:49.663488
MEAN_MOTION    = 15.49608679
ECCENTRICITY   = .00041633
INCLINATION    = 51.6333
RA_OF_ASC_NODE = 288.7385
ARG_OF_PERICENTER = 64.5254
MEAN_ANOMALY   = 295.6165

EPHEMERIS_TYPE = 0
CLASSIFICATION_TYPE = U
NORAD_CAT_ID   = 65304
ELEMENT_SET_NO = 999
REV_AT_EPOCH   = 11
BSTAR          = .35825426E-3
MEAN_MOTION_DOT = .19765E-3
MEAN_MOTION_DDOT = 0

